{"type": "FeatureCollection", "features": [ {"type": "Feature", "properties": {"norad_id": 44476, "name": "INTELSAT 39 (IS-39)", "group": "intelsat", "lat": -0.03450210984307378, "lon": -130.49554424845263, "alt_km": 35785.82969589304, "timestamp": "2025-12-23T05:02:11.691527+00:00", "meta": {"OBJECT_NAME": "INTELSAT 39 (IS-39)", "OBJECT_ID": "2019-049B", "EPOCH": "2025-12-22T22:01:11.051328", "MEAN_MOTION": 1.00270825, "ECCENTRICITY": 0.00012046, "INCLINATION": 0.0187, "RA_OF_ASC_NODE": 340.7902, "ARG_OF_PERICENTER": 164.7349, "MEAN_ANOMALY": 338.4327, "EPHEMERIS_TYPE": 0, "CLASSIFICATION_TYPE": "U", "NORAD_CAT_ID": 44476, "ELEMENT_SET_NO": 999, "REV_AT_EPOCH": 2336, "BSTAR": 0, "MEAN_MOTION_DOT": 5.5e-07, "MEAN_MOTION_DDOT": 0}, "tle": {"line1": "1 44476U 19049B   25356.91748902  .00000055  00000+0  00000+0 0  9997", "line2": "2 44476   0.0187 340.7902 0001204 164.7349 338.4327  1.00270825 23368"}}, "geometry": {"type": "Point", "coordinates": [-130.49554424845263, -0.03450210984307378]}}, {"type": "Feature", "properties": {"norad_id": 46114, "name": "GALAXY 30 (G-30)", "group": "intelsat", "lat": 0.023934795815966345, "lon": 42.563655400343144, "alt_km": 35792.66019115362, "timestamp": "2025-12-23T05:02:11.691538+00:00", "meta": {"OBJECT_NAME": "GALAXY 30 (G-30)", "OBJECT_ID": "2020-056C", "EPOCH": "2025-12-22T14:16:55.506432", "MEAN_MOTION": 1.00270121, "ECCENTRICITY": 0.00020176, "INCLINATION": 0.0183, "RA_OF_ASC_NODE": 9.653, "ARG_OF_PERICENTER": 256.7413, "MEAN_ANOMALY": 274.2401, "EPHEMERIS_TYPE": 0, "CLASSIFICATION_TYPE": "U", "NORAD_CAT_ID": 46114, "ELEMENT_SET_NO": 999, "REV_AT_EPOCH": 1952, "BSTAR": 0, "MEAN_MOTION_DOT": 5.8e-07, "MEAN_MOTION_DDOT": 0}, "tle": {"line1": "1 46114U 20056C   25356.59508688  .00000058  00000+0  00000+0 0  9990", "line2": "2 46114   0.0183   9.6530 0002017 256.7413 274.2401  1.00270121 19522"}}, "geometry": {"type": "Point", "coordinates": [42.563655400343144, 0.023934795815966345]}}, {"type": "Feature", "properties": {"norad_id": 54026, "name": "GALAXY 33 (G-33)", "group": "intelsat", "lat": 0.02471422668735974, "lon": 34.56270144541683, "alt_km": 35790.43549126118, "timestamp": "2025-12-23T05:02:11.691550+00:00", "meta": {"OBJECT_NAME": "GALAXY 33 (G-33)", "OBJECT_ID": "2022-128A", "EPOCH": "2025-12-22T11:35:15.906336", "MEAN_MOTION": 1.00271669, "ECCENTRICITY": 0.00015964, "INCLINATION": 0.0184, "RA_OF_ASC_NODE": 305.6803, "ARG_OF_PERICENTER": 318.2802, "MEAN_ANOMALY": 228.1459, "EPHEMERIS_TYPE": 0, "CLASSIFICATION_TYPE": "U", "NORAD_CAT_ID": 54026, "ELEMENT_SET_NO": 999, "REV_AT_EPOCH": 1197, "BSTAR": 0, "MEAN_MOTION_DOT": 1.01e-06, "MEAN_MOTION_DDOT": 0}, "tle": {"line1": "1 54026U 22128A   25356.48282299  .00000101  00000+0  00000+0 0  9997", "line2": "2 54026   0.0184 305.6803 0001596 318.2802 228.1459  1.00271669 11973"}}, "geometry": {"type": "Point", "coordinates": [34.56270144541683, 0.02471422668735974]}}, {"type": "Feature", "properties": {"norad_id": 54027, "name": "GALAXY 34 (G-34)", "group": "intelsat", "lat": 0.03362141290764497, "lon": 38.60121931537948, "alt_km": 35792.04128772249, "timestamp": "2025-12-23T05:02:11.691561+00:00", "meta": {"OBJECT_NAME": "GALAXY 34 (G-34)", "OBJECT_ID": "2022-128B", "EPOCH": "2025-12-22T14:15:48.113568", "MEAN_MOTION": 1.00269244, "ECCENTRICITY": 0.0001759, "INCLINATION": 0.0236, "RA_OF_ASC_NODE": 341.2387, "ARG_OF_PERICENTER": 281.9092, "MEAN_ANOMALY": 273.2464, "EPHEMERIS_TYPE": 0, "CLASSIFICATION_TYPE": "U", "NORAD_CAT_ID": 54027, "ELEMENT_SET_NO": 999, "REV_AT_EPOCH": 1214, "BSTAR": 0, "MEAN_MOTION_DOT": 0, "MEAN_MOTION_DDOT": 0}, "tle": {"line1": "1 54027U 22128B   25356.59430687  .00000000  00000+0  00000+0 0  9994", "line2": "2 54027   0.0236 341.2387 0001759 281.9092 273.2464  1.00269244 12146"}}, "geometry": {"type": "Point", "coordinates": [38.60121931537948, 0.03362141290764497]}}, {"type": "Feature", "properties": {"norad_id": 54243, "name": "GALAXY 31 (G-31)", "group": "intelsat", "lat": 0.016217806253368716, "lon": 46.5549792755852, "alt_km": 35789.64952037606, "timestamp": "2025-12-23T05:02:11.691573+00:00", "meta": {"OBJECT_NAME": "GALAXY 31 (G-31)", "OBJECT_ID": "2022-153A", "EPOCH": "2025-12-22T14:18:02.899296", "MEAN_MOTION": 1.00271248, "ECCENTRICITY": 0.00014318, "INCLINATION": 0.0304, "RA_OF_ASC_NODE": 247.6237, "ARG_OF_PERICENTER": 34.2912, "MEAN_ANOMALY": 262.9925, "EPHEMERIS_TYPE": 0, "CLASSIFICATION_TYPE": "U", "NORAD_CAT_ID": 54243, "ELEMENT_SET_NO": 999, "REV_AT_EPOCH": 536, "BSTAR": 0, "MEAN_MOTION_DOT": 3.5e-07, "MEAN_MOTION_DDOT": 0}, "tle": {"line1": "1 54243U 22153A   25356.59586689  .00000035  00000+0  00000+0 0  9994", "line2": "2 54243   0.0304 247.6237 0001431  34.2912 262.9925  1.00271248  5362"}}, "geometry": {"type": "Point", "coordinates": [46.5549792755852, 0.016217806253368716]}}, {"type": "Feature", "properties": {"norad_id": 54244, "name": "GALAXY 32 (G-32)", "group": "intelsat", "lat": 0.03382061856999573, "lon": 76.55839170325932, "alt_km": 35790.374705223934, "timestamp": "2025-12-23T05:02:11.691584+00:00", "meta": {"OBJECT_NAME": "GALAXY 32 (G-32)", "OBJECT_ID": "2022-153B", "EPOCH": "2025-12-22T07:35:47.616576", "MEAN_MOTION": 1.00270236, "ECCENTRICITY": 0.00019823, "INCLINATION": 0.0109, "RA_OF_ASC_NODE": 353.9495, "ARG_OF_PERICENTER": 325.6757, "MEAN_ANOMALY": 154.4441, "EPHEMERIS_TYPE": 0, "CLASSIFICATION_TYPE": "U", "NORAD_CAT_ID": 54244, "ELEMENT_SET_NO": 999, "REV_AT_EPOCH": 1137, "BSTAR": 0, "MEAN_MOTION_DOT": -1.52e-06, "MEAN_MOTION_DDOT": 0}, "tle": {"line1": "1 54244U 22153B   25356.31652334 -.00000152  00000+0  00000+0 0  9997", "line2": "2 54244   0.0109 353.9495 0001982 325.6757 154.4441  1.00270236 11370"}}, "geometry": {"type": "Point", "coordinates": [76.55839170325932, 0.03382061856999573]}}, {"type": "Feature", "properties": {"norad_id": 54741, "name": "GALAXY 35 (G-35)", "group": "intelsat", "lat": 0.01145277877197636, "lon": 74.46242820606815, "alt_km": 35794.89748023932, "timestamp": "2025-12-23T05:02:11.691596+00:00", "meta": {"OBJECT_NAME": "GALAXY 35 (G-35)", "OBJECT_ID": "2022-170A", "EPOCH": "2025-12-22T21:16:52.794624", "MEAN_MOTION": 1.00271625, "ECCENTRICITY": 0.00021976, "INCLINATION": 0.0216, "RA_OF_ASC_NODE": 86.6733, "ARG_OF_PERICENTER": 187.6456, "MEAN_ANOMALY": 43.4947, "EPHEMERIS_TYPE": 0, "CLASSIFICATION_TYPE": "U", "NORAD_CAT_ID": 54741, "ELEMENT_SET_NO": 999, "REV_AT_EPOCH": 1112, "BSTAR": 0, "MEAN_MOTION_DOT": -1.41e-06, "MEAN_MOTION_DDOT": 0}, "tle": {"line1": "1 54741U 22170A   25356.88672216 -.00000141  00000+0  00000+0 0  9999", "line2": "2 54741   0.0216  86.6733 0002197 187.6456  43.4947  1.00271625 11121"}}, "geometry": {"type": "Point", "coordinates": [74.46242820606815, 0.01145277877197636]}}, {"type": "Feature", "properties": {"norad_id": 54742, "name": "GALAXY 36 (G-36)", "group": "intelsat", "lat": 0.026041007975002098, "lon": 78.54066872734586, "alt_km": 35787.22241489045, "timestamp": "2025-12-23T05:02:11.691607+00:00", "meta": {"OBJECT_NAME": "GALAXY 36 (G-36)", "OBJECT_ID": "2022-170B", "EPOCH": "2025-12-22T21:18:07.674912", "MEAN_MOTION": 1.00268471, "ECCENTRICITY": 4.487e-05, "INCLINATION": 0.0161, "RA_OF_ASC_NODE": 47.846, "ARG_OF_PERICENTER": 294.9484, "MEAN_ANOMALY": 339.4175, "EPHEMERIS_TYPE": 0, "CLASSIFICATION_TYPE": "U", "NORAD_CAT_ID": 54742, "ELEMENT_SET_NO": 999, "REV_AT_EPOCH": 1100, "BSTAR": 0, "MEAN_MOTION_DOT": 0, "MEAN_MOTION_DDOT": 0}, "tle": {"line1": "1 54742U 22170B   25356.88758883  .00000000  00000+0  00000+0 0  9998", "line2": "2 54742   0.0161  47.8460 0000448 294.9484 339.4175  1.00268471 11000"}}, "geometry": {"type": "Point", "coordinates": [78.54066872734586, 0.026041007975002098]}}, {"type": "Feature", "properties": {"norad_id": 57493, "name": "GALAXY 37 (G-37)", "group": "intelsat", "lat": 0.026210422572310953, "lon": 40.55478730782586, "alt_km": 35790.98579538507, "timestamp": "2025-12-23T05:02:11.691619+00:00", "meta": {"OBJECT_NAME": "GALAXY 37 (G-37)", "OBJECT_ID": "2023-112A", "EPOCH": "2025-12-22T17:41:50.884800", "MEAN_MOTION": 1.00271316, "ECCENTRICITY": 0.00019795, "INCLINATION": 0.0146, "RA_OF_ASC_NODE": 349.5119, "ARG_OF_PERICENTER": 286.0487, "MEAN_ANOMALY": 314.4307, "EPHEMERIS_TYPE": 0, "CLASSIFICATION_TYPE": "U", "NORAD_CAT_ID": 57493, "ELEMENT_SET_NO": 999, "REV_AT_EPOCH": 877, "BSTAR": 0, "MEAN_MOTION_DOT": 7e-07, "MEAN_MOTION_DDOT": 0}, "tle": {"line1": "1 57493U 23112A   25356.73739450  .00000070  00000+0  00000+0 0  9991", "line2": "2 57493   0.0146 349.5119 0001979 286.0487 314.4307  1.00271316  8779"}}, "geometry": {"type": "Point", "coordinates": [40.55478730782586, 0.026210422572310953]}}]}